#dP2022  7 22  6  0  0.00000000      96 __u+U ITR00 EXT  IAC
## 2219 453600.00000000   900.00000000 59782 0.2500000000000
+  116   C06C07C08C09C10C11C12C13C14C16C19C20C21C22C23C24C25
+        C26C27C28C29C30C32C33C34C35C36C37C38C39C40C41C42C43
+        C44C45C46E01E02E03E04E05E07E08E09E10E11E12E13E14E15
+        E18E19E21E24E25E26E27E30E31E33E34E36G01G02G03G04G05
+        G06G07G08G09G10G11G12G13G14G15G16G17G18G19G20G21G22
+        G23G24G25G26G27G28G29G30G31G32J02J03R01R02R03R04R05
+        R07R08R09R11R12R13R14R15R17R18R19R20R21R24  0  0  0
++        11  9  8 11  9  8  8  8 10 11  9 10  9  7  9  8  8
++         9  9  9  7  8  9  8  9  9  8  8  9 11  9  9 10  9
++         8  7  8  8  8  8  9  9  7  8  9  7  7  7  7  7  8
++         8  8  8  7  7  8  7  9  7  8  8  7  7  7  9  7  8
++         7  7  7  7  8  7  8  7  7  8  7  8  8  7  8  7  7
++         7  8  7  7  7  8  9  8  8  8 10  8  8 10  9  7  9
++        11  7  8  8  8  9  8  9  8  8  9  9  8  9  0  0  0
%c M  cc GPS ccc cccc cccc cccc cccc ccccc ccccc ccccc ccccc
%c cc cc ccc ccc cccc cccc cccc cccc ccccc ccccc ccccc ccccc
%f  0.0000000  0.000000000  0.00000000000  0.000000000000000
%f  0.0000000  0.000000000  0.00000000000  0.000000000000000
%i    0    0    0    0      0      0      0      0         0
%i    0    0    0    0      0      0      0      0         0
/* IAC                                ULTRA-RAPID PREDICTION
/* S/V CLOCKS ARE ALIGNED TO GNSS TIME                      
/* G:C1WC2W R:C1PC2P E:C1XC5X C:C2IC6I J:C1CC2S             
/* PCV:IGS14_2215 OL/AL:FES2004  NONE     YN ORB:CoN CLK:CoN
*  2022 07 23  3 15  0.00000000
PC06 -10511.350179  23227.803384 -33585.423060    451.845828
PC07 -14465.778971  38703.535066   7931.079451   -465.619522
PC08   1583.461114  34786.749459  23875.827320    414.620758
PC09  -2083.493753  24280.853022 -34017.931013   -919.193270
PC10  -8698.819217  38722.634553  13722.573561    115.997103
PC11  26903.830238   5026.420807   5607.185236    490.894061
PC12  14327.325420  13583.108511  19760.894130   -570.419188
PC13   5193.168559  37119.516010  19703.172409     31.759706
PC14  17022.199504   1183.784841 -22076.043054    553.862088
PC16 -13426.228615  21959.847537 -33236.830745    143.344300
PC19 -19574.327534   8991.412386  17750.262397   -268.402265
PC20 -12646.837576  -9523.693481  22992.250888   -964.063303
PC21  -2399.407067  23553.567536 -14737.676719    -37.086666
PC22 -15499.665001  23102.304238   1961.429996   -963.038637
PC23   8128.411449 -16571.947269  20942.494419   -949.645415
PC24  17569.365972  20175.744663   7974.316212   -967.660330
PC25  18180.381836   1104.483848  21144.128452   -703.653888
PC26   8084.517114  25494.732232  -8029.884084    705.709631
PC27  -4565.643689 -15792.964244 -22573.830022    758.436266
PC28  15717.859824 -12782.576864 -19196.036850     93.155289
PC29 -27462.258146   2923.645515   3984.631450    585.368773
PC30 -22485.239382  -9364.365158 -13644.162819    501.385641
PC32   2266.407816 -23629.127095  14696.790761    -30.031438
PC33  19535.637406  -9055.221668 -17760.525814   -230.764178
PC34  23184.171194   8826.984941  12748.567117   -352.759550
PC35 -16460.433702  12924.164055  18461.349482    378.340372
PC36 -18299.988179  -2117.210404 -20929.936860   -971.772575
PC37  -6540.395310 -25541.197741   9137.768658   -920.388876
PC38  -5203.575946  30926.851556  28263.719662     12.026149
PC39 -19174.109199  21083.872883 -31103.548997     -0.099090
PC40 -21680.089523  35554.719723   5766.547648     -1.016730
PC41  15647.118484 -22980.849942  -2395.739512   -103.091870
PC42  12001.316522  10554.624710 -22833.356705   -952.659170
PC43  27598.456676  -2396.440883  -3303.548875      4.477707
PC44   4860.094097  15761.819854  22491.353152    732.823815
PC45  -7755.436169  16808.542472 -20878.271850    815.975529
PC46 -18051.833609 -19034.172666  -9458.545389   -446.535371
PE01 -16527.022016  -2966.330800 -24370.004514   -520.407143
PE02  16546.301593   2766.289512  24391.457195    313.674139
PE03  26285.742899  -4064.296622 -13005.183480   -581.807833
PE04 -23687.126202  17050.892683  -4916.158478  -1077.336291
PE05  13464.893849  11604.471490 -23664.219683   -160.439069
PE07   6982.038083 -20286.006593  20407.061422   -689.952648
PE08  23560.987887 -17188.460781   5110.982189   -568.359731
PE09  -6971.813919  20188.019693 -20481.494227   -597.080220
PE10  -6680.394859  14657.063985  24818.985105   -502.393316
PE11   4404.145238  19278.480756  22004.774904   2911.951161
PE12 -16175.730388   8070.607355  23431.751936    -76.331624
PE13  -3696.527308 -19000.222799 -22398.870420    429.931284
PE14  16480.677506   9231.947851  17135.151370  -1771.158000
PE15  16253.994943  -7935.242289 -23433.315744    731.564233
PE18  -9054.502874 -17817.552876 -23796.900059  -1182.207412
PE19 -25412.654810   2021.949568  15050.609633  -5016.786949
PE21 -10910.031561 -21871.029368 -16694.322446   -747.491691
PE24  -2202.082188  29452.505183  -2112.773982   -739.863721
PE25  10777.781273  22087.698162  16507.240775   -582.004902
PE26 -21806.656492 -18623.205162  -7327.261873  -1408.626816
PE27   1350.723379 -29549.244598   1048.674211   -351.101319
PE30  13190.584638 -18912.562411  18553.471538   -694.336842
PE31 -12686.241009  19780.698088 -17985.283578   -500.383680
PE33 -26511.880045  -7755.421646  10637.874074   -454.464324
PE34  26505.292552   7552.843894 -10827.907570   -487.214593
PE36  21313.759571  18819.302036   8219.367987   -406.078917
PG01 -22332.774413 -14124.087161   3828.663195    316.130699
PG02  11340.225339  19333.279200  14781.935204   -650.876748
PG03 -12730.752767 -10780.880669  20573.779731   -314.233993
PG04 -20507.048254  -4346.148924  16371.323750   -142.595592
PG05   6944.307674  22406.475747 -12494.348788    -90.142194
PG06  -4706.766478  14506.017852  21796.233083    396.108102
PG07 -20903.179662  -1356.000901 -16198.406956    318.224563
PG08 -14207.728836  -9274.289088 -20557.465691    -77.343904
PG09 -24934.265510   5512.219451   7306.499367   -316.248533
PG10  11411.185555 -19736.841757 -13223.473766   -501.639413
PG11   7442.962961  20299.092686  15439.779545    -10.407917
PG12  10869.638197  14117.456492  19467.589198   -250.665288
PG13   3981.777967  14576.716883 -21999.767266    353.709015
PG14 -13124.145223  18185.818042 -14144.801443   -111.420665
PG15  15385.837356   8556.386184 -20385.782175    -43.257636
PG16   -431.428362 -25075.828807  -8279.049458   -516.845995
PG17 -21208.267904  13723.593089   8721.254296    640.009609
PG18  20316.842374   1052.618084 -17153.157934    105.034745
PG19 -14570.006894  15417.382009  15581.224556    187.325816
PG20   1009.723707  26666.999076    -34.531404    500.955030
PG21 -20393.572138 -16780.408876  -4673.436364    160.983134
PG22  11328.679305 -16681.199469  17616.301838    297.000956
PG23  14607.945846  -9828.119686 -19863.257801    -34.086633
PG24  22268.272189  14880.863088   -875.875349    189.687408
PG25  15283.474677   -632.319027  21409.360407    352.332135
PG26   3759.578232 -25959.612413   2821.420088    219.736923
PG27   -591.155344 -15737.221776 -21543.950453    220.926387
PG28  -9191.927585  24316.824084  -5502.999643    336.624850
PG29  25362.579673  -3521.024292   7159.231481   -536.069806
PG30 -13933.599656   8634.673119 -20845.104777   -534.564275
PG31   2978.899292 -16231.094143  20580.816677   -186.808617
PG32  18570.295990 -15918.447636  10260.822615   -183.525013
PJ02 -21574.556654  28814.628519 -17306.948984     -2.042528
PJ03 -27508.250357  24449.926678  25572.684343     -0.230990
PR01  -9927.329800  20370.796695 -11696.307587     11.911261
PR02   5004.125987  10382.640876 -22719.345450    524.898656
PR03  16332.810553  -4884.377098 -18908.382712     60.676402
PR04  18320.949093 -17110.439350  -4663.667022    151.557847
PR05  10337.556938 -19889.380484  12164.144433     96.661330
PR07 -16696.728261   5541.356449  18529.506168     38.241591
PR08 -18294.298929  17193.205391   4646.771657    -66.363449
PR09 -11584.207216 -21497.620351  -7486.768179     67.233691
PR11  -7604.538137  10064.242616 -22153.058681     32.535505
PR12   2748.025323  23245.725943 -10121.802082     19.436962
PR13  10931.631292  22189.984828   6211.631515    -24.901391
PR14  13093.286758   7369.143026  20625.231424     24.783068
PR15   7391.759811 -10943.604206  21850.296451     94.558717
PR17  25064.693792   4659.365120  -1391.648735    545.875851
PR18  18914.308519  -3520.106516 -16715.391677     33.972762
PR19   4511.237606  -9507.962540 -23242.935611   -197.311093
PR20 -16443.208847 -11369.512096 -15865.089420    -75.146123
PR21 -24989.026364  -4070.401853   2960.842316   -319.600111
PR24  17204.308047  11125.291252  15218.773556    104.977527
EOF
